{
    "links": {
        "self": "http://www.neowsapp.com/rest/v1/neo/3720876?api_key=iIulBulltgU6a56xZRHN4H3l9WmuAYTsLGpBGhQ2"
    },
    "id": "3720876",
    "neo_reference_id": "3720876",
    "name": "(2015 JE11)",
    "designation": "2015 JE11",
    "nasa_jpl_url": "http://ssd.jpl.nasa.gov/sbdb.cgi?sstr=3720876",
    "absolute_magnitude_h": 21.9,
    "estimated_diameter": {
        "kilometers": {
            "estimated_diameter_min": 0.1108038821,
            "estimated_diameter_max": 0.2477650126
        },
        "meters": {
            "estimated_diameter_min": 110.8038821264,
            "estimated_diameter_max": 247.7650126055
        },
        "miles": {
            "estimated_diameter_min": 0.068850319,
            "estimated_diameter_max": 0.1539539936
        },
        "feet": {
            "estimated_diameter_min": 363.5298086356,
            "estimated_diameter_max": 812.8773639568
        }
    },
    "is_potentially_hazardous_asteroid": false,
    "close_approach_data": [
        {
            "close_approach_date": "2015-04-12",
            "close_approach_date_full": "2015-Apr-12 03:58",
            "epoch_date_close_approach": 1428811080000,
            "relative_velocity": {
                "kilometers_per_second": "8.1785291297",
                "kilometers_per_hour": "29442.7048669362",
                "miles_per_hour": "18294.551810236"
            },
            "miss_distance": {
                "astronomical": "0.2164992449",
                "lunar": "84.2182062661",
                "kilometers": "32387825.893648363",
                "miles": "20124861.8080708894"
            },
            "orbiting_body": "Earth"
        }
    ],
    "orbital_data": {
        "orbit_id": "3",
        "orbit_determination_date": "2017-04-06 08:33:44",
        "first_observation_date": "2015-05-12",
        "last_observation_date": "2015-05-17",
        "data_arc_in_days": 5,
        "observations_used": 13,
        "orbit_uncertainty": "9",
        "minimum_orbit_intersection": ".211939",
        "jupiter_tisserand_invariant": "2.884",
        "epoch_osculation": "2457158.5",
        "eccentricity": ".6095886306908262",
        "semi_major_axis": "3.083722143528472",
        "inclination": "11.35943539922598",
        "ascending_node_longitude": "187.0893387305193",
        "orbital_period": "1977.931677347355",
        "perihelion_distance": "1.203920184623971",
        "perihelion_argument": "21.45024936594321",
        "aphelion_distance": "4.963524102432972",
        "perihelion_time": "2457129.308022166459",
        "mean_anomaly": "5.313182523154058",
        "mean_motion": ".1820083090447307",
        "equinox": "J2000",
        "orbit_class": {
            "orbit_class_type": "AMO",
            "orbit_class_description": "Near-Earth asteroid orbits similar to that of 1221 Amor",
            "orbit_class_range": "1.017 AU < q (perihelion) < 1.3 AU"
        }
    },
    "is_sentry_object": false
}